[{"OBJECT_NAME":"ONEWEB-0569","OBJECT_ID":"2023-004J","EPOCH":"2026-03-09T17:58:10.125120","MEAN_MOTION":13.13470288,"ECCENTRICITY":0.00025187,"INCLINATION":87.9046,"RA_OF_ASC_NODE":339.9936,"ARG_OF_PERICENTER":93.2896,"MEAN_ANOMALY":266.8521,"EPHEMERIS_TYPE":0,"CLASSIFICATION_TYPE":"U","NORAD_CAT_ID":55148,"ELEMENT_SET_NO":999,"REV_AT_EPOCH":15712,"BSTAR":0.00062117942,"MEAN_MOTION_DOT":2.4e-6,"MEAN_MOTION_DDOT":0},{"OBJECT_NAME":"DELTA 1 DEB","OBJECT_ID":"1975-052KB","EPOCH":"2026-03-08T22:02:52.166112","MEAN_MOTION":13.55284442,"ECCENTRICITY":0.02578187,"INCLINATION":99.7713,"RA_OF_ASC_NODE":299.0096,"ARG_OF_PERICENTER":158.2122,"MEAN_ANOMALY":331.0888,"EPHEMERIS_TYPE":0,"CLASSIFICATION_TYPE":"U","NORAD_CAT_ID":26701,"ELEMENT_SET_NO":999,"REV_AT_EPOCH":24855,"BSTAR":0.00067576125,"MEAN_MOTION_DOT":5.35e-6,"MEAN_MOTION_DDOT":0}]
